[{"OBJECT_NAME":"STARLINK-3004","OBJECT_ID":"2021-059B","EPOCH":"2026-03-09T21:19:55.223904","MEAN_MOTION":15.01258246,"ECCENTRICITY":0.00021244,"INCLINATION":97.6585,"RA_OF_ASC_NODE":195.4969,"ARG_OF_PERICENTER":73.0691,"MEAN_ANOMALY":287.0766,"EPHEMERIS_TYPE":0,"CLASSIFICATION_TYPE":"U","NORAD_CAT_ID":48880,"ELEMENT_SET_NO":999,"REV_AT_EPOCH":25883,"BSTAR":-1.697335e-6,"MEAN_MOTION_DOT":-8.1e-7,"MEAN_MOTION_DDOT":0},{"OBJECT_NAME":"HAWK-8A","OBJECT_ID":"2024-066B","EPOCH":"2026-03-09T09:46:26.156352","MEAN_MOTION":14.98766556,"ECCENTRICITY":0.00042143,"INCLINATION":45.5937,"RA_OF_ASC_NODE":72.3645,"ARG_OF_PERICENTER":254.4969,"MEAN_ANOMALY":105.5447,"EPHEMERIS_TYPE":0,"CLASSIFICATION_TYPE":"U","NORAD_CAT_ID":59443,"ELEMENT_SET_NO":999,"REV_AT_EPOCH":10486,"BSTAR":0.0002089936,"MEAN_MOTION_DOT":2.325e-5,"MEAN_MOTION_DDOT":0}]
